CTC1_L_00392016-03
1 10062U 23237TU  26075.70034722  .00000000  00000+0  00000-0 0  9990
2 10062  85.0000 180.0000 0000000   0.0000   0.0000 13.03091871    17
CTC1_L_00392016-04
1 10063U 25076XR  26075.70034722  .00000000  00000+0  00000-0 0  9994
2 10063  85.0000 180.0000 0000000   0.0000  90.0000 13.03091871    17
CTC1_L_00392017-01
1 10064U 25838VT  26075.70034722  .00000000  00000+0  00000-0 0  9991
2 10064  85.0000 192.0000 0000000   0.0000 192.0000 13.03091871    14
CTC1_L_00392017-02
1 10065U 26019NJ  26075.70034722  .00000000  00000+0  00000-0 0  9994
2 10065  85.0000 192.0000 0000000   0.0000 282.0000 13.03091871    15
CTC1_L_00392017-03
1 10066U 22569XZ  26075.70034722  .00000000  00000+0  00000-0 0  9991
2 10066  85.0000 192.0000 0000000   0.0000  12.0000 13.03091871    17
CTC1_L_00392017-04
1 10067U 24455KJ  26075.70034722  .00000000  00000+0  00000-0 0  9998
2 10067  85.0000 192.0000 0000000   0.0000 102.0000 13.03091871    18
CTC1_L_00392018-01
1 10068U 24463ND  26075.70034722  .00000000  00000+0  00000-0 0  9998
2 10068  85.0000 204.0000 0000000   0.0000 204.0000 13.03091871    16
CTC1_L_00392018-02
1 10069U 24928UO  26075.70034722  .00000000  00000+0  00000-0 0  9995
2 10069  85.0000 204.0000 0000000   0.0000 294.0000 13.03091871    16
CTC1_L_00392018-03
1 10070U 25131JP  26075.70034722  .00000000  00000+0  00000-0 0  9994
2 10070  85.0000 204.0000 0000000   0.0000  24.0000 13.03091871    19
CTC1_L_00392018-04
1 10071U 24196KF  26075.70034722  .00000000  00000+0  00000-0 0  9995
2 10071  85.0000 204.0000 0000000   0.0000 114.0000 13.03091871    10
CTC1_L_00392019-01
1 10072U 26432KQ  26075.70034722  .00000000  00000+0  00000-0 0  9991
2 10072  85.0000 216.0000 0000000   0.0000 216.0000 13.03091871    17
CTC1_L_00392019-02
1 10073U 25550JO  26075.70034722  .00000000  00000+0  00000-0 0  9992
2 10073  85.0000 216.0000 0000000   0.0000 306.0000 13.03091871    18
CTC1_L_00392019-03
1 10074U 23035SZ  26075.70034722  .00000000  00000+0  00000-0 0  9999
2 10074  85.0000 216.0000 0000000   0.0000  36.0000 13.03091871    19
CTC1_L_00392019-04
1 10075U 22283HK  26075.70034722  .00000000  00000+0  00000-0 0  9994
2 10075  85.0000 216.0000 0000000   0.0000 126.0000 13.03091871    10
CTC1_L_00392020-01
1 10076U 24668BH  26075.70034722  .00000000  00000+0  00000-0 0  9994
2 10076  85.0000 228.0000 0000000   0.0000 228.0000 13.03091871    17
CTC1_L_00392020-02
1 10077U 25387VB  26075.70034722  .00000000  00000+0  00000-0 0  9994
2 10077  85.0000 228.0000 0000000   0.0000 318.0000 13.03091871    18
CTC1_L_00392020-03
1 10078U 26647OH  26075.70034722  .00000000  00000+0  00000-0 0  9995
2 10078  85.0000 228.0000 0000000   0.0000  48.0000 13.03091871    19
CTC1_L_00392020-04
1 10079U 24189BA  26075.70034722  .00000000  00000+0  00000-0 0  9995
2 10079  85.0000 228.0000 0000000   0.0000 138.0000 13.03091871    10
CTC1_L_00392021-01
1 10080U 22254WO  26075.70034722  .00000000  00000+0  00000-0 0  9998
2 10080  85.0000 240.0000 0000000   0.0000 240.0000 13.03091871    10
CTC1_L_00392021-02
1 10081U 25800NM  26075.70034722  .00000000  00000+0  00000-0 0  9999
2 10081  85.0000 240.0000 0000000   0.0000 330.0000 13.03091871    11
CTC1_L_00392021-03
1 10082U 24250VN  26075.70034722  .00000000  00000+0  00000-0 0  9998
2 10082  85.0000 240.0000 0000000   0.0000  60.0000 13.03091871    12
CTC1_L_00392021-04
1 10083U 22235AY  26075.70034722  .00000000  00000+0  00000-0 0  9990
2 10083  85.0000 240.0000 0000000   0.0000 150.0000 13.03091871    13
CTC1_L_00392022-01
1 10084U 22556KZ  26075.70034722  .00000000  00000+0  00000-0 0  9997
2 10084  85.0000 252.0000 0000000   0.0000 252.0000 13.03091871    10
CTC1_L_00392022-02
1 10085U 23076RH  26075.70034722  .00000000  00000+0  00000-0 0  9996
2 10085  85.0000 252.0000 0000000   0.0000 342.0000 13.03091871    11
CTC1_L_00392022-03
1 10086U 26710XF  26075.70034722  .00000000  00000+0  00000-0 0  9995
2 10086  85.0000 252.0000 0000000   0.0000  72.0000 13.03091871    12
CTC1_L_00392022-04
1 10087U 25338AN  26075.70034722  .00000000  00000+0  00000-0 0  9991
2 10087  85.0000 252.0000 0000000   0.0000 162.0000 13.03091871    13
CTC1_L_00392023-01
1 10088U 24386PD  26075.70034722  .00000000  00000+0  00000-0 0  9994
2 10088  85.0000 264.0000 0000000   0.0000 264.0000 13.03091871    10
CTC1_L_00392023-02
1 10089U 25090XC  26075.70034722  .00000000  00000+0  00000-0 0  9998
2 10089  85.0000 264.0000 0000000   0.0000 354.0000 13.03091871    11
CTC1_L_00392023-03
1 10090U 24095CV  26075.70034722  .00000000  00000+0  00000-0 0  9994
2 10090  85.0000 264.0000 0000000   0.0000  84.0000 13.03091871    13
CTC1_L_00392023-04
1 10091U 25073AX  26075.70034722  .00000000  00000+0  00000-0 0  9992
2 10091  85.0000 264.0000 0000000   0.0000 174.0000 13.03091871    14
CTC1_L_00392024-01
1 10092U 25421JM  26075.70034722  .00000000  00000+0  00000-0 0  9990
2 10092  85.0000 276.0000 0000000   0.0000 276.0000 13.03091871    11
CTC1_L_00392024-02
1 10093U 25241AL  26075.70034722  .00000000  00000+0  00000-0 0  9991
2 10093  85.0000 276.0000 0000000   0.0000   6.0000 13.03091871    13
CTC1_L_00392024-03
1 10094U 26379PL  26075.70034722  .00000000  00000+0  00000-0 0  9995
2 10094  85.0000 276.0000 0000000   0.0000  96.0000 13.03091871    13
CTC1_L_00392024-04
1 10095U 24515TM  26075.70034722  .00000000  00000+0  00000-0 0  9996
2 10095  85.0000 276.0000 0000000   0.0000 186.0000 13.03091871    14
CTC1_L_00392025-01
1 10096U 23959CD  26075.70034722  .00000000  00000+0  00000-0 0  9998
2 10096  85.0000 288.0000 0000000   0.0000 288.0000 13.03091871    11
CTC1_L_00392025-02
1 10097U 23287DF  26075.70034722  .00000000  00000+0  00000-0 0  9993
2 10097  85.0000 288.0000 0000000   0.0000  18.0000 13.03091871    13
CTC1_L_00392025-03
1 10098U 22276EP  26075.70034722  .00000000  00000+0  00000-0 0  9991
2 10098  85.0000 288.0000 0000000   0.0000 108.0000 13.03091871    14
CTC1_L_00392025-04
1 10099U 24768PI  26075.70034722  .00000000  00000+0  00000-0 0  9990
2 10099  85.0000 288.0000 0000000   0.0000 198.0000 13.03091871    14
CTC1_L_00392026-01
1 10100U 26862VT  26075.70034722  .00000000  00000+0  00000-0 0  9990
2 10100  85.0000 300.0000 0000000   0.0000 300.0000 13.03091871    17
CTC1_L_00392026-02
1 10101U 22415AQ  26075.70034722  .00000000  00000+0  00000-0 0  9991
2 10101  85.0000 300.0000 0000000   0.0000  30.0000 13.03091871    18
CTC1_L_00392026-03
1 10102U 23143QA  26075.70034722  .00000000  00000+0  00000-0 0  9991
2 10102  85.0000 300.0000 0000000   0.0000 120.0000 13.03091871    19
CTC1_L_00392026-04
1 10103U 25363BG  26075.70034722  .00000000  00000+0  00000-0 0  9998
2 10103  85.0000 300.0000 0000000   0.0000 210.0000 13.03091871    10
CTC1_L_00392027-01
1 10104U 24929WG  26075.70034722  .00000000  00000+0  00000-0 0  9996
2 10104  85.0000 312.0000 0000000   0.0000 312.0000 13.03091871    17
CTC1_L_00392027-02
1 10105U 26525UE  26075.70034722  .00000000  00000+0  00000-0 0  9991
2 10105  85.0000 312.0000 0000000   0.0000  42.0000 13.03091871    18
CTC1_L_00392027-03
1 10106U 25088YV  26075.70034722  .00000000  00000+0  00000-0 0  9995
2 10106  85.0000 312.0000 0000000   0.0000 132.0000 13.03091871    19
CTC1_L_00392027-04
1 10107U 22735LD  26075.70034722  .00000000  00000+0  00000-0 0  9992
2 10107  85.0000 312.0000 0000000   0.0000 222.0000 13.03091871    10
CTC1_L_00392028-01
1 10108U 24951II  26075.70034722  .00000000  00000+0  00000-0 0  9995
2 10108  85.0000 324.0000 0000000   0.0000 324.0000 13.03091871    17
CTC1_L_00392028-02
1 10109U 24817YQ  26075.70034722  .00000000  00000+0  00000-0 0  9997
2 10109  85.0000 324.0000 0000000   0.0000  54.0000 13.03091871    18
CTC1_L_00392028-03
1 10110U 25153OI  26075.70034722  .00000000  00000+0  00000-0 0  9993
2 10110  85.0000 324.0000 0000000   0.0000 144.0000 13.03091871    10
CTC1_L_00392028-04
1 10111U 24892ZU  26075.70034722  .00000000  00000+0  00000-0 0  9993
2 10111  85.0000 324.0000 0000000   0.0000 234.0000 13.03091871    11
CTC1_L_00392029-01
1 10112U 26583JQ  26075.70034722  .00000000  00000+0  00000-0 0  9993
2 10112  85.0000 336.0000 0000000   0.0000 336.0000 13.03091871    18
CTC1_L_00392029-02
1 10113U 25905HK  26075.70034722  .00000000  00000+0  00000-0 0  9991
2 10113  85.0000 336.0000 0000000   0.0000  66.0000 13.03091871    19
CTC1_L_00392029-03
1 10114U 24839MA  26075.70034722  .00000000  00000+0  00000-0 0  9997
2 10114  85.0000 336.0000 0000000   0.0000 156.0000 13.03091871    10
CTC1_L_00392029-04
1 10115U 23797EX  26075.70034722  .00000000  00000+0  00000-0 0  9990
2 10115  85.0000 336.0000 0000000   0.0000 246.0000 13.03091871    11
CTC1_L_00392030-01
1 10116U 23282WO  26075.70034722  .00000000  00000+0  00000-0 0  9990
2 10116  85.0000 348.0000 0000000   0.0000 348.0000 13.03091871    18
CTC1_L_00392030-02
1 10117U 25649VY  26075.70034722  .00000000  00000+0  00000-0 0  9990
2 10117  85.0000 348.0000 0000000   0.0000  78.0000 13.03091871    19
CTC1_L_00392030-03
1 10118U 25731ML  26075.70034722  .00000000  00000+0  00000-0 0  9993
2 10118  85.0000 348.0000 0000000   0.0000 168.0000 13.03091871    10
CTC1_L_00392030-04
1 10119U 23821AB  26075.70034722  .00000000  00000+0  00000-0 0  9992
2 10119  85.0000 348.0000 0000000   0.0000 258.0000 13.03091871    11
